{
    "links": {
        "self": "http://www.neowsapp.com/rest/v1/neo/3328633?api_key=iIulBulltgU6a56xZRHN4H3l9WmuAYTsLGpBGhQ2"
    },
    "id": "3328633",
    "neo_reference_id": "3328633",
    "name": "(2006 FU)",
    "designation": "2006 FU",
    "nasa_jpl_url": "http://ssd.jpl.nasa.gov/sbdb.cgi?sstr=3328633",
    "absolute_magnitude_h": 25.6,
    "estimated_diameter": {
        "kilometers": {
            "estimated_diameter_min": 0.0201629919,
            "estimated_diameter_max": 0.0450858206
        },
        "meters": {
            "estimated_diameter_min": 20.1629919443,
            "estimated_diameter_max": 45.0858206172
        },
        "miles": {
            "estimated_diameter_min": 0.0125286985,
            "estimated_diameter_max": 0.0280150214
        },
        "feet": {
            "estimated_diameter_min": 66.1515504905,
            "estimated_diameter_max": 147.9193637137
        }
    },
    "is_potentially_hazardous_asteroid": false,
    "close_approach_data": [
        {
            "close_approach_date": "2004-08-11",
            "close_approach_date_full": "2004-Aug-11 07:16",
            "epoch_date_close_approach": 1092208560000,
            "relative_velocity": {
                "kilometers_per_second": "19.4049826411",
                "kilometers_per_hour": "69857.9375078524",
                "miles_per_hour": "43407.0056698097"
            },
            "miss_distance": {
                "astronomical": "0.3810133543",
                "lunar": "148.2141948227",
                "kilometers": "56998786.244835341",
                "miles": "35417403.4457200658"
            },
            "orbiting_body": "Earth"
        },
        {
            "close_approach_date": "2006-03-28",
            "close_approach_date_full": "2006-Mar-28 04:32",
            "epoch_date_close_approach": 1143520320000,
            "relative_velocity": {
                "kilometers_per_second": "12.3191592276",
                "kilometers_per_hour": "44348.973219365",
                "miles_per_hour": "27556.7272762216"
            },
            "miss_distance": {
                "astronomical": "0.0096435058",
                "lunar": "3.7513237562",
                "kilometers": "1442647.927012646",
                "miles": "896419.8543046748"
            },
            "orbiting_body": "Earth"
        }
    ],
    "orbital_data": {
        "orbit_id": "8",
        "orbit_determination_date": "2017-04-06 09:08:54",
        "first_observation_date": "2006-03-24",
        "last_observation_date": "2006-03-27",
        "data_arc_in_days": 3,
        "observations_used": 26,
        "orbit_uncertainty": "8",
        "minimum_orbit_intersection": ".00908328",
        "jupiter_tisserand_invariant": "4.376",
        "epoch_osculation": "2453819.5",
        "eccentricity": ".4130755309585744",
        "semi_major_axis": "1.521479687238251",
        "inclination": "13.97128360407567",
        "ascending_node_longitude": "5.428939354927133",
        "orbital_period": "685.4845405799223",
        "perihelion_distance": ".8929936575896246",
        "perihelion_argument": "233.1746170447446",
        "aphelion_distance": "2.149965716886877",
        "perihelion_time": "2453862.870003528881",
        "mean_anomaly": "337.2231168668102",
        "mean_motion": ".5251759575721996",
        "equinox": "J2000",
        "orbit_class": {
            "orbit_class_type": "APO",
            "orbit_class_description": "Near-Earth asteroid orbits which cross the Earth’s orbit similar to that of 1862 Apollo",
            "orbit_class_range": "a (semi-major axis) > 1.0 AU; q (perihelion) < 1.017 AU"
        }
    },
    "is_sentry_object": false
}